QIANFAN-73              
1 63159U 25046A   25326.53382571  .00000032  00000+0  30686-4 0  9994
2 63159  88.9750 322.1164 0014928 175.1829 184.9469 13.50973967 44682
QIANFAN-74              
1 63160U 25046B   25326.51727727  .00000029  00000+0  26798-4 0  9995
2 63160  88.9750 322.0066 0002007  85.9612 274.1769 13.50976110 44742
QIANFAN-75              
1 63161U 25046C   25326.50461375  .00000121  00000+0  16923-3 0  9990
2 63161  88.9752 322.2413 0015939 178.8636 181.2554 13.50989152 44615
QIANFAN-76              
1 63162U 25046D   25326.50097740 -.00000097  00000+0 -16850-3 0  9995
2 63162  88.9749 322.2226 0013479 178.5181 181.6013 13.50965692 44621
QIANFAN-77              
1 63163U 25046E   25326.47376185  .00000080  00000+0  48238-4 0  9991
2 63163  88.9752 320.3983 0016075 137.8917 222.3499 13.96075968 45625
QIANFAN-78              
1 63164U 25046F   25326.54203092  .00000011  00000+0 -13908-5 0  9998
2 63164  88.9751 322.0824 0014785 181.1593 178.9527 13.50974686 44707
QIANFAN-79              
1 63165U 25046G   25326.57071425  .00000035  00000+0  34777-4 0  9996
2 63165  88.9754 322.1862 0014530 179.1745 180.9433 13.50975561 44654
QIANFAN-80              
1 63166U 25046H   25326.51315561  .00000085  00000+0  11228-3 0  9993
2 63166  88.9752 321.8994 0013375 183.2714 176.8352 13.50979812 44807
